QIANFAN-49              
1 62250U 24232P   25355.20954152  .00000090  00000+0  12055-3 0  9990
2 62250  89.0018  40.3820 0015001 163.5560 196.6081 13.50980483 68986
QIANFAN-50              
1 62251U 24232Q   25355.23421346  .00000048  00000+0  55289-4 0  9998
2 62251  89.0023  40.3881 0016606 165.5198 194.6432 13.50977082 69015
QIANFAN-51              
1 62252U 24232R   25355.21777755  .00000082  00000+0  10761-3 0  9998
2 62252  89.0017  40.3832 0013990 167.8366 192.3126 13.50980014 69003
QIANFAN-52              
1 62253U 24232S   25355.17253261  .00000076  00000+0  99144-4 0  9991
2 62253  89.0013  40.2610 0016220 161.6074 198.5667 13.50978111 69081
QIANFAN-53              
1 62254U 24232T   25355.22599456  .00000093  00000+0  12544-3 0  9994
2 62254  89.0020  40.3607 0015080 162.0156 198.1532 13.50980525 69052
QIANFAN-54              
1 62255U 24232U   25355.19308345  .00000090  00000+0  12082-3 0  9990
2 62255  89.0012  40.0417 0002350 157.8033 202.3221 13.50980743100558
QIANFAN-55              
1 62785U 25016A   25355.14504190  .00000156  00000+0  22281-3 0  9995
2 62785  88.9783 102.3431 0015936 327.7987  32.2190 13.50989812 48324
QIANFAN-56              
1 62786U 25016B   25355.23557498  .00000154  00000+0  22047-3 0  9993
2 62786  88.9757 102.1679 0014626 330.5079  29.5246 13.50980994 48386
